{"type": "FeatureCollection", "features": [{"type": "Feature", "properties": {"norad_id": 66549, "name": "SHIJIAN-28 (SJ-28)", "group": "last-30-days", "lat": 3.0866474410886497, "lon": 56.75491288149969, "alt_km": 35783.87053010666, "timestamp": "2025-12-27T13:34:48.004497+00:00", "meta": {"OBJECT_NAME": "SHIJIAN-28 (SJ-28)", "OBJECT_ID": "2025-277A", "EPOCH": "2025-12-25T13:29:07.948320", "MEAN_MOTION": 1.0026485, "ECCENTRICITY": 9.97e-05, "INCLINATION": 4.9871, "RA_OF_ASC_NODE": 274.7549, "ARG_OF_PERICENTER": 127.1328, "MEAN_ANOMALY": 11.4336, "EPHEMERIS_TYPE": 0, "CLASSIFICATION_TYPE": "U", "NORAD_CAT_ID": 66549, "ELEMENT_SET_NO": 999, "REV_AT_EPOCH": 41, "BSTAR": 0, "MEAN_MOTION_DOT": -3.37e-06, "MEAN_MOTION_DDOT": 0}, "tle": {"line1": "1 66549U 25277A   25359.56189755 -.00000337  00000+0  00000+0 0  9995", "line2": "2 66549   4.9871 274.7549 0000997 127.1328  11.4336  1.00264850   417"}}, "geometry": {"type": "Point", "coordinates": [56.75491288149969, 3.0866474410886497]}}, {"type": "Feature", "properties": {"norad_id": 66550, "name": "CZ-7A R/B", "group": "last-30-days", "lat": 1.2224888198724873, "lon": -94.32667033450188, "alt_km": 19552.897929068895, "timestamp": "2025-12-27T13:34:48.004543+00:00", "meta": {"OBJECT_NAME": "CZ-7A R/B", "OBJECT_ID": "2025-277B", "EPOCH": "2025-12-26T04:09:27.198144", "MEAN_MOTION": 3.54037207, "ECCENTRICITY": 0.6428177, "INCLINATION": 14.3386, "RA_OF_ASC_NODE": 261.883, "ARG_OF_PERICENTER": 204.1589, "MEAN_ANOMALY": 102.8537, "EPHEMERIS_TYPE": 0, "CLASSIFICATION_TYPE": "U", "NORAD_CAT_ID": 66550, "ELEMENT_SET_NO": 999, "REV_AT_EPOCH": 76, "BSTAR": 0.003172, "MEAN_MOTION_DOT": 0.04976202, "MEAN_MOTION_DDOT": -2.1169e-07}, "tle": {"line1": "1 66550U 25277B   25360.17323146  .04976202 -21169-6  31720-2 0  9999", "line2": "2 66550  14.3386 261.8830 6428177 204.1589 102.8537  3.54037207   761"}}, "geometry": {"type": "Point", "coordinates": [-94.32667033450188, 1.2224888198724873]}}, {"type": "Feature", "properties": {"norad_id": 66554, "name": "GLOBAL-33", "group": "last-30-days", "lat": -8.611464904724594, "lon": 161.076435251056, "alt_km": 467.534618267895, "timestamp": "2025-12-27T13:34:48.004571+00:00", "meta": {"OBJECT_NAME": "GLOBAL-33", "OBJECT_ID": "2025-267A", "EPOCH": "2025-12-27T04:55:04.681920", "MEAN_MOTION": 15.31821083, "ECCENTRICITY": 0.00051492, "INCLINATION": 42.0213, "RA_OF_ASC_NODE": 333.4792, "ARG_OF_PERICENTER": 191.8206, "MEAN_ANOMALY": 168.2511, "EPHEMERIS_TYPE": 0, "CLASSIFICATION_TYPE": "U", "NORAD_CAT_ID": 66554, "ELEMENT_SET_NO": 999, "REV_AT_EPOCH": 562, "BSTAR": 0.0005153059, "MEAN_MOTION_DOT": 0.00015963, "MEAN_MOTION_DDOT": 0}, "tle": {"line1": "1 66554U 25267A   25361.20491530  .00015963  00000+0  51531-3 0  9990", "line2": "2 66554  42.0213 333.4792 0005149 191.8206 168.2511 15.31821083  5626"}}, "geometry": {"type": "Point", "coordinates": [161.076435251056, -8.611464904724594]}}, {"type": "Feature", "properties": {"norad_id": 66557, "name": "STARLINK-35699", "group": "last-30-days", "lat": 18.45584177859527, "lon": 55.80137319966528, "alt_km": 474.6467164753012, "timestamp": "2025-12-27T13:34:48.004584+00:00", "meta": {"OBJECT_NAME": "STARLINK-35699", "OBJECT_ID": "2025-268A", "EPOCH": "2025-12-27T08:00:01.999872", "MEAN_MOTION": 15.30892706, "ECCENTRICITY": 6.857e-05, "INCLINATION": 43.0008, "RA_OF_ASC_NODE": 36.1347, "ARG_OF_PERICENTER": 219.0677, "MEAN_ANOMALY": 326.4553, "EPHEMERIS_TYPE": 0, "CLASSIFICATION_TYPE": "U", "NORAD_CAT_ID": 66557, "ELEMENT_SET_NO": 999, "REV_AT_EPOCH": 607, "BSTAR": -0.089288276, "MEAN_MOTION_DOT": -0.02408486, "MEAN_MOTION_DDOT": 0}, "tle": {"line1": "1 66557U 25268A   25361.33335648 -.02408486  00000+0 -89288-1 0  9993", "line2": "2 66557  43.0008  36.1347 0000685 219.0677 326.4553 15.30892706  6073"}}, "geometry": {"type": "Point", "coordinates": [55.80137319966528, 18.45584177859527]}}, {"type": "Feature", "properties": {"norad_id": 66558, "name": "STARLINK-35695", "group": "last-30-days", "lat": 30.037756018437772, "lon": 73.12058002451012, "alt_km": 470.148888563509, "timestamp": "2025-12-27T13:34:48.004597+00:00", "meta": {"OBJECT_NAME": "STARLINK-35695", "OBJECT_ID": "2025-268B", "EPOCH": "2025-12-27T08:00:01.999872", "MEAN_MOTION": 15.3142217, "ECCENTRICITY": 0.0001027, "INCLINATION": 43.0009, "RA_OF_ASC_NODE": 36.0887, "ARG_OF_PERICENTER": 294.7425, "MEAN_ANOMALY": 269.7877, "EPHEMERIS_TYPE": 0, "CLASSIFICATION_TYPE": "U", "NORAD_CAT_ID": 66558, "ELEMENT_SET_NO": 999, "REV_AT_EPOCH": 607, "BSTAR": -0.072524495, "MEAN_MOTION_DOT": -0.02029617, "MEAN_MOTION_DDOT": 0}, "tle": {"line1": "1 66558U 25268B   25361.33335648 -.02029617  00000+0 -72524-1 0  9994", "line2": "2 66558  43.0009  36.0887 0001027 294.7425 269.7877 15.31422170  6078"}}, "geometry": {"type": "Point", "coordinates": [73.12058002451012, 30.037756018437772]}}, {"type": "Feature", "properties": {"norad_id": 66559, "name": "STARLINK-35419", "group": "last-30-days", "lat": 22.67329102833522, "lon": -172.10449479449935, "alt_km": 456.27769045624245, "timestamp": "2025-12-27T13:34:48.004610+00:00", "meta": {"OBJECT_NAME": "STARLINK-35419", "OBJECT_ID": "2025-268C", "EPOCH": "2025-12-27T08:00:01.999872", "MEAN_MOTION": 15.36557746, "ECCENTRICITY": 0.0001014, "INCLINATION": 43.0001, "RA_OF_ASC_NODE": 35.8613, "ARG_OF_PERICENTER": 270.5686, "MEAN_ANOMALY": 27.8774, "EPHEMERIS_TYPE": 0, "CLASSIFICATION_TYPE": "U", "NORAD_CAT_ID": 66559, "ELEMENT_SET_NO": 999, "REV_AT_EPOCH": 607, "BSTAR": -0.061492684, "MEAN_MOTION_DOT": -0.01995228, "MEAN_MOTION_DDOT": 0}, "tle": {"line1": "1 66559U 25268C   25361.33335648 -.01995228  00000+0 -61493-1 0  9997", "line2": "2 66559  43.0001  35.8613 0001014 270.5686  27.8774 15.36557746  6074"}}, "geometry": {"type": "Point", "coordinates": [-172.10449479449935, 22.67329102833522]}}, {"type": "Feature", "properties": {"norad_id": 66560, "name": "STARLINK-35411", "group": "last-30-days", "lat": 15.939481281571595, "lon": -163.34295188337842, "alt_km": 455.52056084228934, "timestamp": "2025-12-27T13:34:48.004624+00:00", "meta": {"OBJECT_NAME": "STARLINK-35411", "OBJECT_ID": "2025-268D", "EPOCH": "2025-12-27T08:00:01.999872", "MEAN_MOTION": 15.37106639, "ECCENTRICITY": 9.633e-05, "INCLINATION": 43.0004, "RA_OF_ASC_NODE": 35.8361, "ARG_OF_PERICENTER": 270.1938, "MEAN_ANOMALY": 38.4737, "EPHEMERIS_TYPE": 0, "CLASSIFICATION_TYPE": "U", "NORAD_CAT_ID": 66560, "ELEMENT_SET_NO": 999, "REV_AT_EPOCH": 607, "BSTAR": -0.062038826, "MEAN_MOTION_DOT": -0.02078182, "MEAN_MOTION_DDOT": 0}, "tle": {"line1": "1 66560U 25268D   25361.33335648 -.02078182  00000+0 -62039-1 0  9998", "line2": "2 66560  43.0004  35.8361 0000963 270.1938  38.4737 15.37106639  6076"}}, "geometry": {"type": "Point", "coordinates": [-163.34295188337842, 15.939481281571595]}}, {"type": "Feature", "properties": {"norad_id": 66561, "name": "STARLINK-35305", "group": "last-30-days", "lat": -4.247561570286372, "lon": -140.99868084400794, "alt_km": 453.02443954852515, "timestamp": "2025-12-27T13:34:48.004636+00:00", "meta": {"OBJECT_NAME": "STARLINK-35305", "OBJECT_ID": "2025-268E", "EPOCH": "2025-12-27T08:00:01.999872", "MEAN_MOTION": 15.38789907, "ECCENTRICITY": 0.0001272, "INCLINATION": 42.9997, "RA_OF_ASC_NODE": 35.7649, "ARG_OF_PERICENTER": 263.853, "MEAN_ANOMALY": 73.3916, "EPHEMERIS_TYPE": 0, "CLASSIFICATION_TYPE": "U", "NORAD_CAT_ID": 66561, "ELEMENT_SET_NO": 999, "REV_AT_EPOCH": 601, "BSTAR": -0.059330432, "MEAN_MOTION_DOT": -0.02062963, "MEAN_MOTION_DDOT": 0}, "tle": {"line1": "1 66561U 25268E   25361.33335648 -.02062963  00000+0 -59330-1 0  9999", "line2": "2 66561  42.9997  35.7649 0001272 263.8530  73.3916 15.38789907  6012"}}, "geometry": {"type": "Point", "coordinates": [-140.99868084400794, -4.247561570286372]}}, {"type": "Feature", "properties": {"norad_id": 66562, "name": "STARLINK-35579", "group": "last-30-days", "lat": 5.767905756207301, "lon": -151.7553978620295, "alt_km": 454.37350008115027, "timestamp": "2025-12-27T13:34:48.004648+00:00", "meta": {"OBJECT_NAME": "STARLINK-35579", "OBJECT_ID": "2025-268F", "EPOCH": "2025-12-27T08:00:01.999872", "MEAN_MOTION": 15.37936931, "ECCENTRICITY": 0.00011753, "INCLINATION": 42.9997, "RA_OF_ASC_NODE": 35.8009, "ARG_OF_PERICENTER": 261.3303, "MEAN_ANOMALY": 61.9105, "EPHEMERIS_TYPE": 0, "CLASSIFICATION_TYPE": "U", "NORAD_CAT_ID": 66562, "ELEMENT_SET_NO": 999, "REV_AT_EPOCH": 607, "BSTAR": -0.060099774, "MEAN_MOTION_DOT": -0.0203517, "MEAN_MOTION_DDOT": 0}, "tle": {"line1": "1 66562U 25268F   25361.33335648 -.02035170  00000+0 -60100-1 0  9997", "line2": "2 66562  42.9997  35.8009 0001175 261.3303  61.9105 15.37936931  6076"}}, "geometry": {"type": "Point", "coordinates": [-151.7553978620295, 5.767905756207301]}}, {"type": "Feature", "properties": {"norad_id": 66563, "name": "STARLINK-35437", "group": "last-30-days", "lat": -13.736896756534069, "lon": -130.39579326641052, "alt_km": 451.3598394311275, "timestamp": "2025-12-27T13:34:48.004660+00:00", "meta": {"OBJECT_NAME": "STARLINK-35437", "OBJECT_ID": "2025-268G", "EPOCH": "2025-12-27T08:00:01.999872", "MEAN_MOTION": 15.39627236, "ECCENTRICITY": 0.00014114, "INCLINATION": 43.0002, "RA_OF_ASC_NODE": 35.7325, "ARG_OF_PERICENTER": 264.6838, "MEAN_ANOMALY": 86.0093, "EPHEMERIS_TYPE": 0, "CLASSIFICATION_TYPE": "U", "NORAD_CAT_ID": 66563, "ELEMENT_SET_NO": 999, "REV_AT_EPOCH": 601, "BSTAR": -0.057707208, "MEAN_MOTION_DOT": -0.02063129, "MEAN_MOTION_DDOT": 0}, "tle": {"line1": "1 66563U 25268G   25361.33335648 -.02063129  00000+0 -57707-1 0  9992", "line2": "2 66563  43.0002  35.7325 0001411 264.6838  86.0093 15.39627236  6013"}}, "geometry": {"type": "Point", "coordinates": [-130.39579326641052, -13.736896756534069]}}]}